start=new Date('2022-02-08T00:00:00.000Z').valueOf();
sats=[{"MEAN_ELEMENT_THEORY":"SGP4","OBJECT_NAME":"STARLINK-1162","APOAPSIS":"548.312","TLE_LINE2":"2 45058  53.0532 140.7122 0001469  83.4557 276.6599 15.06373513111710","SITE":"AFETR","ARG_OF_PERICENTER":"83.4557","MEAN_MOTION":"15.06373513","PERIOD":"95.594","OBJECT_TYPE":"PAYLOAD","DECAY_DATE":null,"MEAN_MOTION_DDOT":"0.0000000000000","INCLINATION":"53.0532","GP_ID":"195479464","ELEMENT_SET_NO":"999","ECCENTRICITY":"0.00014690","NORAD_CAT_ID":"45058","FILE":"3294379","EPOCH":"2022-02-07T12:38:43.037664","MEAN_MOTION_DOT":"-0.00000512","TIME_SYSTEM":"UTC","REF_FRAME":"TEME","PERIAPSIS":"546.277","EPHEMERIS_TYPE":"0","RCS_SIZE":"LARGE","RA_OF_ASC_NODE":"140.7122","LAUNCH_DATE":"2020-01-29","CLASSIFICATION_TYPE":"U","CENTER_NAME":"EARTH","REV_AT_EPOCH":"11171","SEMIMAJOR_AXIS":"6925.430","MEAN_ANOMALY":"276.6599","TLE_LINE1":"1 45058U 20006Q   22038.52688701 -.00000512  00000-0 -15513-4 0  9991","COUNTRY_CODE":"US","BSTAR":"-0.00001551300000","OBJECT_ID":"2020-006Q"},{"RA_OF_ASC_NODE":"140.6133","RCS_SIZE":"LARGE","EPHEMERIS_TYPE":"0","PERIAPSIS":"546.179","REF_FRAME":"TEME","TIME_SYSTEM":"UTC","COUNTRY_CODE":"US","BSTAR":"0.00051233000000","OBJECT_ID":"2020-006R","TLE_LINE1":"1 45059U 20006R   22038.54897354  .00007360  00000-0  51233-3 0  9994","MEAN_ANOMALY":"271.7217","SEMIMAJOR_AXIS":"6925.320","REV_AT_EPOCH":"11171","CLASSIFICATION_TYPE":"U","LAUNCH_DATE":"2020-01-29","CENTER_NAME":"EARTH","PERIOD":"95.592","MEAN_MOTION":"15.06409402","ARG_OF_PERICENTER":"88.3938","SITE":"AFETR","TLE_LINE2":"2 45059  53.0536 140.6133 0001452  88.3938 271.7217 15.06409402111715","APOAPSIS":"548.190","OBJECT_NAME":"STARLINK-1165","MEAN_ELEMENT_THEORY":"SGP4","MEAN_MOTION_DOT":"0.00007360","FILE":"3294379","EPOCH":"2022-02-07T13:10:31.313856","NORAD_CAT_ID":"45059","ECCENTRICITY":"0.00014520","GP_ID":"195477712","ELEMENT_SET_NO":"999","INCLINATION":"53.0536","MEAN_MOTION_DDOT":"0.0000000000000","DECAY_DATE":null,"OBJECT_TYPE":"PAYLOAD"},{"RA_OF_ASC_NODE":"140.6301","EPHEMERIS_TYPE":"0","PERIAPSIS":"546.071","RCS_SIZE":"LARGE","TIME_SYSTEM":"UTC","REF_FRAME":"TEME","MEAN_ANOMALY":"284.1650","OBJECT_ID":"2020-006S","COUNTRY_CODE":"US","BSTAR":"0.00076302000000","TLE_LINE1":"1 45060U 20006S   22038.54528853  .00011106  00000-0  76302-3 0  9998","REV_AT_EPOCH":"11171","CENTER_NAME":"EARTH","LAUNCH_DATE":"2020-01-29","CLASSIFICATION_TYPE":"U","SEMIMAJOR_AXIS":"6925.308","ARG_OF_PERICENTER":"75.9516","PERIOD":"95.591","MEAN_MOTION":"15.06413220","OBJECT_NAME":"STARLINK-1166","SITE":"AFETR","TLE_LINE2":"2 45060  53.0523 140.6301 0001591  75.9516 284.1650 15.06413220111710","APOAPSIS":"548.275","MEAN_ELEMENT_THEORY":"SGP4","NORAD_CAT_ID":"45060","MEAN_MOTION_DOT":"0.00011106","FILE":"3294379","EPOCH":"2022-02-07T13:05:12.928992","ECCENTRICITY":"0.00015910","GP_ID":"195478462","ELEMENT_SET_NO":"999","MEAN_MOTION_DDOT":"0.0000000000000","DECAY_DATE":null,"INCLINATION":"53.0523","OBJECT_TYPE":"PAYLOAD"},{"PERIOD":"95.594","MEAN_MOTION":"15.06377236","ARG_OF_PERICENTER":"77.4972","MEAN_ELEMENT_THEORY":"SGP4","TLE_LINE2":"2 45061  53.0550 140.6069 0001307  77.4972 282.6163 15.06377236111718","SITE":"AFETR","APOAPSIS":"548.188","OBJECT_NAME":"STARLINK-1169","ECCENTRICITY":"0.00013070","ELEMENT_SET_NO":"999","GP_ID":"195478714","MEAN_MOTION_DOT":"0.00000194","EPOCH":"2022-02-07T13:15:52.143840","FILE":"3294379","NORAD_CAT_ID":"45061","OBJECT_TYPE":"PAYLOAD","INCLINATION":"53.0550","DECAY_DATE":null,"MEAN_MOTION_DDOT":"0.0000000000000","RA_OF_ASC_NODE":"140.6069","REF_FRAME":"TEME","TIME_SYSTEM":"UTC","RCS_SIZE":"LARGE","EPHEMERIS_TYPE":"0","PERIAPSIS":"546.378","COUNTRY_CODE":"US","BSTAR":"0.00003196200000","OBJECT_ID":"2020-006T","TLE_LINE1":"1 45061U 20006T   22038.55268685  .00000194  00000-0  31962-4 0  9993","MEAN_ANOMALY":"282.6163","SEMIMAJOR_AXIS":"6925.418","REV_AT_EPOCH":"11171","LAUNCH_DATE":"2020-01-29","CLASSIFICATION_TYPE":"U","CENTER_NAME":"EARTH"},{"NORAD_CAT_ID":"45062","FILE":"3294379","EPOCH":"2022-02-07T12:54:38.750400","MEAN_MOTION_DOT":"-0.00001161","GP_ID":"195478965","ELEMENT_SET_NO":"999","ECCENTRICITY":"0.00012960","DECAY_DATE":null,"MEAN_MOTION_DDOT":"0.0000000000000","INCLINATION":"53.0546","OBJECT_TYPE":"PAYLOAD","ARG_OF_PERICENTER":"85.4886","MEAN_MOTION":"15.06372540","PERIOD":"95.594","OBJECT_NAME":"STARLINK-1171","APOAPSIS":"548.195","TLE_LINE2":"2 45062  53.0546 140.6543 0001296  85.4886 274.6251 15.06372540111713","SITE":"AFETR","MEAN_ELEMENT_THEORY":"SGP4","MEAN_ANOMALY":"274.6251","TLE_LINE1":"1 45062U 20006U   22038.53794850 -.00001161  00000-0 -59101-4 0  9992","COUNTRY_CODE":"US","OBJECT_ID":"2020-006U","BSTAR":"-0.00005910100000","CLASSIFICATION_TYPE":"U","LAUNCH_DATE":"2020-01-29","CENTER_NAME":"EARTH","REV_AT_EPOCH":"11171","SEMIMAJOR_AXIS":"6925.433","RA_OF_ASC_NODE":"140.6543","PERIAPSIS":"546.400","EPHEMERIS_TYPE":"0","RCS_SIZE":"LARGE","TIME_SYSTEM":"UTC","REF_FRAME":"TEME"},{"MEAN_ELEMENT_THEORY":"SGP4","TLE_LINE2":"2 45064  53.0548 120.8911 0001652  79.6141 280.5034 15.06373536111981","SITE":"AFETR","APOAPSIS":"548.439","OBJECT_NAME":"STARLINK-1133","PERIOD":"95.594","MEAN_MOTION":"15.06373536","ARG_OF_PERICENTER":"79.6141","OBJECT_TYPE":"PAYLOAD","INCLINATION":"53.0548","DECAY_DATE":null,"MEAN_MOTION_DDOT":"0.0000000000000","ECCENTRICITY":"0.00016520","ELEMENT_SET_NO":"999","GP_ID":"195478212","MEAN_MOTION_DOT":"0.00005042","FILE":"3294379","EPOCH":"2022-02-07T11:37:41.413440","NORAD_CAT_ID":"45064","REF_FRAME":"TEME","TIME_SYSTEM":"UTC","RCS_SIZE":"LARGE","EPHEMERIS_TYPE":"0","PERIAPSIS":"546.151","RA_OF_ASC_NODE":"120.8911","SEMIMAJOR_AXIS":"6925.430","REV_AT_EPOCH":"11198","LAUNCH_DATE":"2020-01-29","CLASSIFICATION_TYPE":"U","CENTER_NAME":"EARTH","COUNTRY_CODE":"US","OBJECT_ID":"2020-006W","BSTAR":"0.00035739000000","TLE_LINE1":"1 45064U 20006W   22038.48450710  .00005042  00000-0  35739-3 0  9992","MEAN_ANOMALY":"280.5034"},{"MEAN_ANOMALY":"276.1282","TLE_LINE1":"1 45065U 20006X   22038.48818005 -.00002392  00000-0 -14181-3 0  9993","BSTAR":"-0.00014181000000","COUNTRY_CODE":"US","OBJECT_ID":"2020-006X","LAUNCH_DATE":"2020-01-29","CLASSIFICATION_TYPE":"U","CENTER_NAME":"EARTH","REV_AT_EPOCH":"11198","SEMIMAJOR_AXIS":"6925.405","RA_OF_ASC_NODE":"120.8927","TIME_SYSTEM":"UTC","REF_FRAME":"TEME","PERIAPSIS":"546.281","EPHEMERIS_TYPE":"0","RCS_SIZE":"LARGE","GP_ID":"195477963","ELEMENT_SET_NO":"999","ECCENTRICITY":"0.00014280","NORAD_CAT_ID":"45065","EPOCH":"2022-02-07T11:42:58.756320","FILE":"3294379","MEAN_MOTION_DOT":"-0.00002392","OBJECT_TYPE":"PAYLOAD","DECAY_DATE":null,"MEAN_MOTION_DDOT":"0.0000000000000","INCLINATION":"53.0541","ARG_OF_PERICENTER":"83.9870","MEAN_MOTION":"15.06381599","PERIOD":"95.593","MEAN_ELEMENT_THEORY":"SGP4","OBJECT_NAME":"STARLINK-1139","APOAPSIS":"548.259","TLE_LINE2":"2 45065  53.0541 120.8927 0001428  83.9870 276.1282 15.06381599111984","SITE":"AFETR"},{"MEAN_ELEMENT_THEORY":"SGP4","OBJECT_NAME":"STARLINK-1145","APOAPSIS":"548.299","TLE_LINE2":"2 45066  53.0536 120.7126 0001480  77.7706 282.3449 15.06380201111989","SITE":"AFETR","ARG_OF_PERICENTER":"77.7706","MEAN_MOTION":"15.06380201","PERIOD":"95.593","OBJECT_TYPE":"PAYLOAD","MEAN_MOTION_DDOT":"0.0000000000000","DECAY_DATE":null,"INCLINATION":"53.0536","ELEMENT_SET_NO":"999","GP_ID":"195479214","ECCENTRICITY":"0.00014800","NORAD_CAT_ID":"45066","FILE":"3294379","EPOCH":"2022-02-07T12:41:21.984288","MEAN_MOTION_DOT":"0.00002459","TIME_SYSTEM":"UTC","REF_FRAME":"TEME","PERIAPSIS":"546.249","EPHEMERIS_TYPE":"0","RCS_SIZE":"LARGE","RA_OF_ASC_NODE":"120.7126","LAUNCH_DATE":"2020-01-29","CENTER_NAME":"EARTH","CLASSIFICATION_TYPE":"U","REV_AT_EPOCH":"11198","SEMIMAJOR_AXIS":"6925.409","MEAN_ANOMALY":"282.3449","TLE_LINE1":"1 45066U 20006Y   22038.52872667  .00002459  00000-0  18403-3 0  9996","BSTAR":"0.00018403000000","COUNTRY_CODE":"US","OBJECT_ID":"2020-006Y"},{"REF_FRAME":"TEME","TIME_SYSTEM":"UTC","RCS_SIZE":"LARGE","EPHEMERIS_TYPE":"0","PERIAPSIS":"546.342","RA_OF_ASC_NODE":"120.6240","SEMIMAJOR_AXIS":"6925.422","REV_AT_EPOCH":"11199","CLASSIFICATION_TYPE":"U","LAUNCH_DATE":"2020-01-29","CENTER_NAME":"EARTH","COUNTRY_CODE":"US","BSTAR":"-0.00003993800000","OBJECT_ID":"2020-006Z","TLE_LINE1":"1 45067U 20006Z   22038.54347598 -.00000876  00000-0 -39938-4 0  9999","MEAN_ANOMALY":"278.0708","MEAN_ELEMENT_THEORY":"SGP4","SITE":"AFETR","TLE_LINE2":"2 45067  53.0533 120.6240 0001364  82.0436 278.0708 15.06376033111992","APOAPSIS":"548.232","OBJECT_NAME":"STARLINK-1150","PERIOD":"95.594","MEAN_MOTION":"15.06376033","ARG_OF_PERICENTER":"82.0436","OBJECT_TYPE":"PAYLOAD","INCLINATION":"53.0533","MEAN_MOTION_DDOT":"0.0000000000000","DECAY_DATE":null,"ECCENTRICITY":"0.00013640","GP_ID":"195479465","ELEMENT_SET_NO":"999","MEAN_MOTION_DOT":"-0.00000876","EPOCH":"2022-02-07T13:02:36.324672","FILE":"3294379","NORAD_CAT_ID":"45067"},{"RA_OF_ASC_NODE":"120.6011","REF_FRAME":"TEME","TIME_SYSTEM":"UTC","RCS_SIZE":"LARGE","PERIAPSIS":"545.167","EPHEMERIS_TYPE":"0","TLE_LINE1":"1 45068U 20006AA  22038.51683603 -.00035893  00000-0 -23798-2 0  9999","BSTAR":"-0.00237980000000","COUNTRY_CODE":"US","OBJECT_ID":"2020-006AA","MEAN_ANOMALY":"283.2003","SEMIMAJOR_AXIS":"6924.257","LAUNCH_DATE":"2020-01-29","CLASSIFICATION_TYPE":"U","CENTER_NAME":"EARTH","REV_AT_EPOCH":"11198","MEAN_MOTION":"15.06756350","PERIOD":"95.570","ARG_OF_PERICENTER":"76.9140","MEAN_ELEMENT_THEORY":"SGP4","APOAPSIS":"547.076","TLE_LINE2":"2 45068  53.0538 120.6011 0001379  76.9140 283.2003 15.06756350111983","SITE":"AFETR","OBJECT_NAME":"STARLINK-1161","ELEMENT_SET_NO":"999","GP_ID":"195477713","ECCENTRICITY":"0.00013790","FILE":"3294379","EPOCH":"2022-02-07T12:24:14.632992","MEAN_MOTION_DOT":"-0.00035893","NORAD_CAT_ID":"45068","OBJECT_TYPE":"PAYLOAD","INCLINATION":"53.0538","MEAN_MOTION_DDOT":"0.0000000000000","DECAY_DATE":null}];
